Total gap duration: 6 days, 22:38:16.512937
STARLINK-4507
1 53403U 22097R   24100.94319071  .00000213  00000+0  31503-4 0  9997
2 53403  53.2191  21.2638 0001342  96.0235 264.0910 15.08838673 93020
Total gap duration: 6 days, 21:15:08.213136
STARLINK-6364
1 57378U 23099BC  24101.05438598 -.00003325  00000+0 -23106-3 0  9992
2 57378  43.0060  46.1171 0001084 274.5621  85.5098 15.02551420 42214
Total gap duration: 6 days, 22:38:16.512937
STARLINK-30381
1 57785U 23134Q   24100.86298067  .00002028  00000+0  16513-3 0  9998
2 57785  43.0055  34.2875 0001089 261.4624  98.6095 15.02542618 34359
Total gap duration: 6 days, 22:38:16.512937
STARLINK-4709
1 53778U 22111F   24101.47806034  .00001115  00000+0  88138-4 0  9996
2 53778  53.2180 173.2429 0001460  91.8939 268.2220 15.08839570 87417
Total gap duration: 6 days, 21:16:46.359580
STARLINK-2092
1 47373U 21005AA  24100.92688855  .00003646  00000+0  26345-3 0  9991
2 47373  53.0540 318.4822 0001458  94.7553 265.3602 15.06409163177725
Total gap duration: 6 days, 21:12:21.327905
STARLINK-1378
1 45548U 20025T   24100.47021270  .00008230  00000+0  57055-3 0  9992
2 45548  53.0551   5.0215 0001539  87.8863 272.2302 15.06413172219705
Total gap duration: 6 days, 21:12:13.095965
STARLINK-30410
1 57841U 23141B   24100.90369597  .00003911  00000+0  18306-3 0  9995
2 57841  53.0782 290.4451 0001172  88.5330 271.5801 15.22042112 33331
Total gap duration: 6 days, 21:24:22.109792
STARLINK-1553
1 46348U 20062Z   24101.42863657  .00000207  00000+0  32755-4 0  9998
2 46348  53.0569 251.2326 0000887  70.6835 289.4250 15.06387854199521
Total gap duration: 6 days, 21:16:30.783561
STARLINK-6276
1 57355U 23099AD  24100.95643593  .00001474  00000+0  12413-3 0  9998
2 57355  43.0046  73.1225 0001286 269.2345  90.8350 15.02536140 41155
Total gap duration: 6 days, 22:38:16.512937
STARLINK-30936
1 58534U 23192D   24101.33863712 -.00006543  00000+0 -22387-3 0  9997
2 58534  53.1631  65.8849 0001718 100.8234 259.2960 15.28001596 20261
Total gap duration: 6 days, 21:35:12.766048
